{
  "type": "FeatureCollection",
  "features": [
    {
      "type": "Feature",
      "properties": {
        "norad_id": 41877,
        "name": "RESOURCESAT-2A",
        "group": "resource",
        "lat": -13.247600972142338,
        "lon": 48.97877281037015,
        "alt_km": 823.8091314868852,
        "timestamp": "2025-12-02T23:34:15.171060+00:00",
        "meta_object_name": "RESOURCESAT-2A",
        "meta_object_id": "2016-074A",
        "meta_epoch": "2025-12-02T11:48:33.818112",
        "meta_mean_motion": 14.21592371,
        "meta_eccentricity": 0.0001175,
        "meta_inclination": 98.7768,
        "meta_ra_of_asc_node": 46.4072,
        "meta_arg_of_pericenter": 306.3736,
        "meta_mean_anomaly": 53.7332,
        "meta_ephemeris_type": 0,
        "meta_classification_type": "U",
        "meta_norad_cat_id": 41877,
        "meta_element_set_no": 999,
        "meta_rev_at_epoch": 46635,
        "meta_bstar": 0.00012813,
        "meta_mean_motion_dot": 2.36e-06,
        "meta_mean_motion_ddot": 0,
        "tle_line1": "1 41877U 16074A   25336.49205808  .00000236  00000+0  12813-3 0  9998",
        "tle_line2": "2 41877  98.7768  46.4072 0001175 306.3736  53.7332 14.21592371466351"
      },
      "geometry": {
        "type": "Point",
        "coordinates": [
          48.97877281037015,
          -13.247600972142338
        ]
      }
    },
    {
      "type": "Feature",
      "properties": {
        "norad_id": 41948,
        "name": "CARTOSAT-2D",
        "group": "resource",
        "lat": 10.034808473655108,
        "lon": -144.04732853637765,
        "alt_km": 506.677249852306,
        "timestamp": "2025-12-02T23:34:15.171071+00:00",
        "meta_object_name": "CARTOSAT-2D",
        "meta_object_id": "2017-008A",
        "meta_epoch": "2025-12-02T11:45:40.630176",
        "meta_mean_motion": 15.19329744,
        "meta_eccentricity": 0.0004804,
        "meta_inclination": 97.4405,
        "meta_ra_of_asc_node": 34.1428,
        "meta_arg_of_pericenter": 201.1395,
        "meta_mean_anomaly": 158.9642,
        "meta_ephemeris_type": 0,
        "meta_classification_type": "U",
        "meta_norad_cat_id": 41948,
        "meta_element_set_no": 999,
        "meta_rev_at_epoch": 48771,
        "meta_bstar": 2.3379e-06,
        "meta_mean_motion_dot": -1.8e-07,
        "meta_mean_motion_ddot": 0,
        "tle_line1": "1 41948U 17008A   25336.49005359 -.00000018  00000+0  23379-5 0  9994",
        "tle_line2": "2 41948  97.4405  34.1428 0004804 201.1395 158.9642 15.19329744487713"
      },
      "geometry": {
        "type": "Point",
        "coordinates": [
          -144.04732853637765,
          10.034808473655108
        ]
      }
    },
    {
      "type": "Feature",
      "properties": {
        "norad_id": 42063,
        "name": "SENTINEL-2B",
        "group": "resource",
        "lat": -7.9277787133536535,
        "lon": 50.76826585465684,
        "alt_km": 793.1441850747387,
        "timestamp": "2025-12-02T23:34:15.171081+00:00",
        "meta_object_name": "SENTINEL-2B",
        "meta_object_id": "2017-013A",
        "meta_epoch": "2025-12-02T11:51:35.788608",
        "meta_mean_motion": 14.3080935,
        "meta_eccentricity": 0.0001124,
        "meta_inclination": 98.5728,
        "meta_ra_of_asc_node": 49.0835,
        "meta_arg_of_pericenter": 98.729,
        "meta_mean_anomaly": 261.402,
        "meta_ephemeris_type": 0,
        "meta_classification_type": "U",
        "meta_norad_cat_id": 42063,
        "meta_element_set_no": 999,
        "meta_rev_at_epoch": 45651,
        "meta_bstar": 0.00010265,
        "meta_mean_motion_dot": 2.25e-06,
        "meta_mean_motion_ddot": 0,
        "tle_line1": "1 42063U 17013A   25336.49416422  .00000225  00000+0  10265-3 0  9993",
        "tle_line2": "2 42063  98.5728  49.0835 0001124  98.7290 261.4020 14.30809350456517"
      },
      "geometry": {
        "type": "Point",
        "coordinates": [
          50.76826585465684,
          -7.9277787133536535
        ]
      }
    },
    {
      "type": "Feature",
      "properties": {
        "norad_id": 42767,
        "name": "CARTOSAT-2E",
        "group": "resource",
        "lat": 77.69926662375278,
        "lon": -2.2345456477711076,
        "alt_km": 502.4296107482496,
        "timestamp": "2025-12-02T23:34:15.171091+00:00",
        "meta_object_name": "CARTOSAT-2E",
        "meta_object_id": "2017-036C",
        "meta_epoch": "2025-12-02T16:53:45.021120",
        "meta_mean_motion": 15.19156375,
        "meta_eccentricity": 0.0002438,
        "meta_inclination": 97.4584,
        "meta_ra_of_asc_node": 34.4186,
        "meta_arg_of_pericenter": 299.2179,
        "meta_mean_anomaly": 60.8811,
        "meta_ephemeris_type": 0,
        "meta_classification_type": "U",
        "meta_norad_cat_id": 42767,
        "meta_element_set_no": 999,
        "meta_rev_at_epoch": 46831,
        "meta_bstar": 0.00035609,
        "meta_mean_motion_dot": 7.419e-05,
        "meta_mean_motion_ddot": 0,
        "tle_line1": "1 42767U 17036C   25336.70399330  .00007419  00000+0  35609-3 0  9992",
        "tle_line2": "2 42767  97.4584  34.4186 0002438 299.2179  60.8811 15.19156375468316"
      },
      "geometry": {
        "type": "Point",
        "coordinates": [
          -2.2345456477711076,
          77.69926662375278
        ]
      }
    },
    {
      "type": "Feature",
      "properties": {
        "norad_id": 42920,
        "name": "FORMOSAT-5",
        "group": "resource",
        "lat": 6.174911730160346,
        "lon": 50.59517816294461,
        "alt_km": 718.7412893704432,
        "timestamp": "2025-12-02T23:34:15.171101+00:00",
        "meta_object_name": "FORMOSAT-5",
        "meta_object_id": "2017-049A",
        "meta_epoch": "2025-12-02T11:57:25.915104",
        "meta_mean_motion": 14.50995128,
        "meta_eccentricity": 0.0010362,
        "meta_inclination": 98.2464,
        "meta_ra_of_asc_node": 51.0199,
        "meta_arg_of_pericenter": 329.672,
        "meta_mean_anomaly": 30.3875,
        "meta_ephemeris_type": 0,
        "meta_classification_type": "U",
        "meta_norad_cat_id": 42920,
        "meta_element_set_no": 999,
        "meta_rev_at_epoch": 43815,
        "meta_bstar": 9.804e-05,
        "meta_mean_motion_dot": 3.44e-06,
        "meta_mean_motion_ddot": 0,
        "tle_line1": "1 42920U 17049A   25336.49821661  .00000344  00000+0  98040-4 0  9999",
        "tle_line2": "2 42920  98.2464  51.0199 0010362 329.6720  30.3875 14.50995128438159"
      },
      "geometry": {
        "type": "Point",
        "coordinates": [
          50.59517816294461,
          6.174911730160346
        ]
      }
    },
    {
      "type": "Feature",
      "properties": {
        "norad_id": 42969,
        "name": "SENTINEL-5P",
        "group": "resource",
        "lat": 64.36474989268804,
        "lon": -103.127014458404,
        "alt_km": 820.0389325216038,
        "timestamp": "2025-12-02T23:34:15.171114+00:00",
        "meta_object_name": "SENTINEL-5P",
        "meta_object_id": "2017-064A",
        "meta_epoch": "2025-12-02T09:43:42.960576",
        "meta_mean_motion": 14.19513219,
        "meta_eccentricity": 9.44e-05,
        "meta_inclination": 98.7768,
        "meta_ra_of_asc_node": 275.0819,
        "meta_arg_of_pericenter": 85.6517,
        "meta_mean_anomaly": 274.4767,
        "meta_ephemeris_type": 0,
        "meta_classification_type": "U",
        "meta_norad_cat_id": 42969,
        "meta_element_set_no": 999,
        "meta_rev_at_epoch": 42164,
        "meta_bstar": 7.6421e-05,
        "meta_mean_motion_dot": 1.17e-06,
        "meta_mean_motion_ddot": 0,
        "tle_line1": "1 42969U 17064A   25336.40535834  .00000117  00000+0  76421-4 0  9991",
        "tle_line2": "2 42969  98.7768 275.0819 0000944  85.6517 274.4767 14.19513219421648"
      },
      "geometry": {
        "type": "Point",
        "coordinates": [
          -103.127014458404,
          64.36474989268804
        ]
      }
    },
    {
      "type": "Feature",
      "properties": {
        "norad_id": 42987,
        "name": "SKYSAT-C11",
        "group": "resource",
        "lat": 23.57826342731858,
        "lon": 110.9795899160886,
        "alt_km": 425.6543576247532,
        "timestamp": "2025-12-02T23:34:15.171124+00:00",
        "meta_object_name": "SKYSAT-C11",
        "meta_object_id": "2017-068A",
        "meta_epoch": "2025-12-02T07:56:32.315712",
        "meta_mean_motion": 15.46785042,
        "meta_eccentricity": 9.01e-05,
        "meta_inclination": 97.4132,
        "meta_ra_of_asc_node": 113.5708,
        "meta_arg_of_pericenter": 116.2054,
        "meta_mean_anomaly": 243.9288,
        "meta_ephemeris_type": 0,
        "meta_classification_type": "U",
        "meta_norad_cat_id": 42987,
        "meta_element_set_no": 999,
        "meta_rev_at_epoch": 45270,
        "meta_bstar": 0.00052381,
        "meta_mean_motion_dot": 0.00026208,
        "meta_mean_motion_ddot": 0,
        "tle_line1": "1 42987U 17068A   25336.33092958  .00026208  00000+0  52381-3 0  9999",
        "tle_line2": "2 42987  97.4132 113.5708 0000901 116.2054 243.9288 15.46785042452708"
      },
      "geometry": {
        "type": "Point",
        "coordinates": [
          110.9795899160886,
          23.57826342731858
        ]
      }
    }
  ]
}